{
  "type": "FeatureCollection",
  "features": [
    {
      "type": "Feature",
      "properties": {
        "norad_id": 35022,
        "name": "COSMOS 2251 DEB",
        "group": "cosmos-2251-debris",
        "lat": -37.47874784567536,
        "lon": -53.61925716281923,
        "alt_km": 727.9267013211265,
        "timestamp": "2025-12-14T05:42:18.858495+00:00",
        "meta_object_name": "COSMOS 2251 DEB",
        "meta_object_id": "1993-036AGK",
        "meta_epoch": "2025-12-13T05:13:57.662400",
        "meta_mean_motion": 14.60837478,
        "meta_eccentricity": 0.0046712,
        "meta_inclination": 74.027,
        "meta_ra_of_asc_node": 321.0157,
        "meta_arg_of_pericenter": 160.7874,
        "meta_mean_anomaly": 199.5067,
        "meta_ephemeris_type": 0,
        "meta_classification_type": "U",
        "meta_norad_cat_id": 35022,
        "meta_element_set_no": 999,
        "meta_rev_at_epoch": 59150,
        "meta_bstar": 0.00067238306,
        "meta_mean_motion_dot": 3.308e-05,
        "meta_mean_motion_ddot": 0,
        "tle_line1": "1 35022U 93036AGK 25347.21802850  .00003308  00000+0  67238-3 0  9992",
        "tle_line2": "2 35022  74.0270 321.0157 0046712 160.7874 199.5067 14.60837478591501"
      },
      "geometry": {
        "type": "Point",
        "coordinates": [
          -53.61925716281923,
          -37.47874784567536
        ]
      }
    },
    {
      "type": "Feature",
      "properties": {
        "norad_id": 35023,
        "name": "COSMOS 2251 DEB",
        "group": "cosmos-2251-debris",
        "lat": -37.846204511597314,
        "lon": -163.28401879155433,
        "alt_km": 568.1786277508481,
        "timestamp": "2025-12-14T05:42:18.858506+00:00",
        "meta_object_name": "COSMOS 2251 DEB",
        "meta_object_id": "1993-036AGL",
        "meta_epoch": "2025-12-13T15:42:28.351584",
        "meta_mean_motion": 14.95148996,
        "meta_eccentricity": 0.00339746,
        "meta_inclination": 74.0377,
        "meta_ra_of_asc_node": 210.7413,
        "meta_arg_of_pericenter": 288.309,
        "meta_mean_anomaly": 134.0066,
        "meta_ephemeris_type": 0,
        "meta_classification_type": "U",
        "meta_norad_cat_id": 35023,
        "meta_element_set_no": 999,
        "meta_rev_at_epoch": 88293,
        "meta_bstar": 0.0016253963,
        "meta_mean_motion_dot": 0.00018057,
        "meta_mean_motion_ddot": 0,
        "tle_line1": "1 35023U 93036AGL 25347.65449481  .00018057  00000+0  16254-2 0  9996",
        "tle_line2": "2 35023  74.0377 210.7413 0033974 288.3090 134.0066 14.95148996882933"
      },
      "geometry": {
        "type": "Point",
        "coordinates": [
          -163.28401879155433,
          -37.846204511597314
        ]
      }
    },
    {
      "type": "Feature",
      "properties": {
        "norad_id": 35025,
        "name": "COSMOS 2251 DEB",
        "group": "cosmos-2251-debris",
        "lat": -73.59102714350843,
        "lon": -18.05060196255686,
        "alt_km": 628.2147462150406,
        "timestamp": "2025-12-14T05:42:18.858516+00:00",
        "meta_object_name": "COSMOS 2251 DEB",
        "meta_object_id": "1993-036AGN",
        "meta_epoch": "2025-12-12T21:29:10.280832",
        "meta_mean_motion": 14.72710298,
        "meta_eccentricity": 0.00851917,
        "meta_inclination": 73.9386,
        "meta_ra_of_asc_node": 62.6223,
        "meta_arg_of_pericenter": 335.4034,
        "meta_mean_anomaly": 24.3084,
        "meta_ephemeris_type": 0,
        "meta_classification_type": "U",
        "meta_norad_cat_id": 35025,
        "meta_element_set_no": 999,
        "meta_rev_at_epoch": 88645,
        "meta_bstar": 0.00059100311,
        "meta_mean_motion_dot": 3.96e-05,
        "meta_mean_motion_ddot": 0,
        "tle_line1": "1 35025U 93036AGN 25346.89525788  .00003960  00000+0  59100-3 0  9993",
        "tle_line2": "2 35025  73.9386  62.6223 0085191 335.4034  24.3084 14.72710298886453"
      },
      "geometry": {
        "type": "Point",
        "coordinates": [
          -18.05060196255686,
          -73.59102714350843
        ]
      }
    },
    {
      "type": "Feature",
      "properties": {
        "norad_id": 35026,
        "name": "COSMOS 2251 DEB",
        "group": "cosmos-2251-debris",
        "lat": 39.07012956278778,
        "lon": -30.597566758827504,
        "alt_km": 658.8590365577566,
        "timestamp": "2025-12-14T05:42:18.858527+00:00",
        "meta_object_name": "COSMOS 2251 DEB",
        "meta_object_id": "1993-036AGP",
        "meta_epoch": "2025-12-13T06:41:51.254880",
        "meta_mean_motion": 14.53623986,
        "meta_eccentricity": 0.00823222,
        "meta_inclination": 74.0467,
        "meta_ra_of_asc_node": 317.7836,
        "meta_arg_of_pericenter": 71.0972,
        "meta_mean_anomaly": 355.7631,
        "meta_ephemeris_type": 0,
        "meta_classification_type": "U",
        "meta_norad_cat_id": 35026,
        "meta_element_set_no": 999,
        "meta_rev_at_epoch": 88151,
        "meta_bstar": 0.0001179875,
        "meta_mean_motion_dot": 4.86e-06,
        "meta_mean_motion_ddot": 0,
        "tle_line1": "1 35026U 93036AGP 25347.27906545  .00000486  00000+0  11799-3 0  9993",
        "tle_line2": "2 35026  74.0467 317.7836 0082322  71.0972 355.7631 14.53623986881514"
      },
      "geometry": {
        "type": "Point",
        "coordinates": [
          -30.597566758827504,
          39.07012956278778
        ]
      }
    },
    {
      "type": "Feature",
      "properties": {
        "norad_id": 35028,
        "name": "COSMOS 2251 DEB",
        "group": "cosmos-2251-debris",
        "lat": 8.8585093788647,
        "lon": 85.58154519395862,
        "alt_km": 742.3318969323791,
        "timestamp": "2025-12-14T05:42:18.858538+00:00",
        "meta_object_name": "COSMOS 2251 DEB",
        "meta_object_id": "1993-036AGR",
        "meta_epoch": "2025-12-13T04:31:14.272896",
        "meta_mean_motion": 14.56570709,
        "meta_eccentricity": 0.00824622,
        "meta_inclination": 74.0384,
        "meta_ra_of_asc_node": 270.1287,
        "meta_arg_of_pericenter": 43.6868,
        "meta_mean_anomaly": 26.0271,
        "meta_ephemeris_type": 0,
        "meta_classification_type": "U",
        "meta_norad_cat_id": 35028,
        "meta_element_set_no": 999,
        "meta_rev_at_epoch": 88292,
        "meta_bstar": 0.0001683276,
        "meta_mean_motion_dot": 7.54e-06,
        "meta_mean_motion_ddot": 0,
        "tle_line1": "1 35028U 93036AGR 25347.18835964  .00000754  00000+0  16833-3 0  9993",
        "tle_line2": "2 35028  74.0384 270.1287 0082462  43.6868  26.0271 14.56570709882921"
      },
      "geometry": {
        "type": "Point",
        "coordinates": [
          85.58154519395862,
          8.8585093788647
        ]
      }
    },
    {
      "type": "Feature",
      "properties": {
        "norad_id": 35031,
        "name": "COSMOS 2251 DEB",
        "group": "cosmos-2251-debris",
        "lat": -16.64433946348513,
        "lon": -108.40181236117627,
        "alt_km": 755.3787768405527,
        "timestamp": "2025-12-14T05:42:18.858549+00:00",
        "meta_object_name": "COSMOS 2251 DEB",
        "meta_object_id": "1993-036AGU",
        "meta_epoch": "2025-12-08T11:13:55.739136",
        "meta_mean_motion": 14.3828637,
        "meta_eccentricity": 0.00186752,
        "meta_inclination": 74.0383,
        "meta_ra_of_asc_node": 267.1323,
        "meta_arg_of_pericenter": 1.498,
        "meta_mean_anomaly": 358.6226,
        "meta_ephemeris_type": 0,
        "meta_classification_type": "U",
        "meta_norad_cat_id": 35031,
        "meta_element_set_no": 999,
        "meta_rev_at_epoch": 65222,
        "meta_bstar": 0.00036337037,
        "meta_mean_motion_dot": 1.081e-05,
        "meta_mean_motion_ddot": 0,
        "tle_line1": "1 35031U 93036AGU 25342.46800624  .00001081  00000+0  36337-3 0  9993",
        "tle_line2": "2 35031  74.0383 267.1323 0018675   1.4980 358.6226 14.38286370652223"
      },
      "geometry": {
        "type": "Point",
        "coordinates": [
          -108.40181236117627,
          -16.64433946348513
        ]
      }
    },
    {
      "type": "Feature",
      "properties": {
        "norad_id": 35032,
        "name": "COSMOS 2251 DEB",
        "group": "cosmos-2251-debris",
        "lat": -39.051501972906784,
        "lon": -9.199989368751705,
        "alt_km": 714.4749214761905,
        "timestamp": "2025-12-14T05:42:18.858559+00:00",
        "meta_object_name": "COSMOS 2251 DEB",
        "meta_object_id": "1993-036AGV",
        "meta_epoch": "2025-12-12T09:44:51.253728",
        "meta_mean_motion": 14.58721339,
        "meta_eccentricity": 0.00684021,
        "meta_inclination": 73.8524,
        "meta_ra_of_asc_node": 7.9202,
        "meta_arg_of_pericenter": 219.308,
        "meta_mean_anomaly": 204.5512,
        "meta_ephemeris_type": 0,
        "meta_classification_type": "U",
        "meta_norad_cat_id": 35032,
        "meta_element_set_no": 999,
        "meta_rev_at_epoch": 87669,
        "meta_bstar": 0.0013764232,
        "meta_mean_motion_dot": 6.609e-05,
        "meta_mean_motion_ddot": 0,
        "tle_line1": "1 35032U 93036AGV 25346.40614877  .00006609  00000+0  13764-2 0  9994",
        "tle_line2": "2 35032  73.8524   7.9202 0068402 219.3080 204.5512 14.58721339876695"
      },
      "geometry": {
        "type": "Point",
        "coordinates": [
          -9.199989368751705,
          -39.051501972906784
        ]
      }
    }
  ]
}